0 SL-6 R/B(2)
1 14191U 83070D   13281.64482301  .00000332  00000-0  00000+0 0  6025
2 14191 067.6212 231.9055 6302188 044.3505 351.4981 02.03379499145339
0 SL-6 R/B(2)
1 14191U 83070D   13281.65873243  .00000334  00000-0  00000+0 0  6038
2 14191 067.6273 231.9127 6302752 044.3569 001.6732 02.03379337145332
0 SL-6 R/B(2)
1 14191U 83070D   13287.54513096  .00000913  00000-0  00000+0 0  6043
2 14191 067.6151 231.4648 6305902 044.1694 351.5512 02.03380507145454
0 SL-6 R/B(2)
1 14191U 83070D   13287.63256374  .00000915  00000-0  00000+0 0  6059
2 14191 067.6218 231.4670 6305764 044.1726 055.5490 02.03381105145456
0 SL-6 R/B(2)
1 14191U 83070D   13292.06403910  .00000797  00000-0  00000+0 0  6061
2 14191 067.6181 231.1369 6308145 044.0335 060.2448 02.03388508145548
0 SL-6 R/B(2)
1 14191U 83070D   13294.54085144  .00000536  00000-0  00000+0 0  6073
2 14191 067.6153 230.9521 6309586 043.9566 073.8116 02.03393323145596
